{
  "type": "FeatureCollection",
  "features": [
    {
      "type": "Feature",
      "id": 1,
      "geometry": {
        "type": "LineString",
        "coordinates": [
          [
            121.41141196651157,
            23.723803693061623
          ],
          [
            121.40730882003722,
            23.722405459086865
          ],
          [
            121.40620828102989,
            23.72202177682148
          ],
          [
            121.40569456491797,
            23.72185710579891
          ],
          [
            121.40541101617235,
            23.721724952932046
          ],
          [
            121.4048458745402,
            23.721518296359168
          ],
          [
            121.40396386051327,
            23.721245813293038
          ],
          [
            121.40339474293023,
            23.721044477555974
          ],
          [
            121.40271483204432,
            23.72090977067066
          ],
          [
            121.40246892846085,
            23.720807822701733
          ],
          [
            121.40206368662946,
            23.720653947580356
          ],
          [
            121.40159496771378,
            23.72056304535382
          ],
          [
            121.40143354198663,
            23.720571838531313
          ],
          [
            121.4012310820568,
            23.720547240293612
          ],
          [
            121.40081928369004,
            23.720479217549318
          ],
          [
            121.40036670013866,
            23.72045945314623
          ],
          [
            121.39975962895811,
            23.72048614659923
          ],
          [
            121.39932093197594,
            23.720545901725004
          ],
          [
            121.39916136186318,
            23.72043779663983
          ],
          [
            121.39847220940379,
            23.720194224879766
          ],
          [
            121.39790589383064,
            23.720180348234507
          ],
          [
            121.39724959057156,
            23.719783344924974
          ],
          [
            121.39714973873278,
            23.719809159130236
          ],
          [
            121.39696084300522,
            23.719763640944375
          ],
          [
            121.39664424469342,
            23.71971333915975
          ],
          [
            121.39642731407433,
            23.719575887071493
          ],
          [
            121.39637734903756,
            23.719576015101275
          ],
          [
            121.39571650392114,
            23.719511257821033
          ],
          [
            121.39579212695635,
            23.719035907524727
          ],
          [
            121.39587600707635,
            23.718574439163003
          ],
          [
            121.39593149262066,
            23.71812285695058
          ],
          [
            121.39697639336205,
            23.71822486130501
          ],
          [
            121.39844074998265,
            23.718391204885656
          ],
          [
            121.39924048594148,
            23.71849055363934
          ],
          [
            121.40030329670489,
            23.718638287266636
          ],
          [
            121.40177174744484,
            23.71888558553411
          ],
          [
            121.40219264304665,
            23.71895567525312
          ],
          [
            121.40306403116733,
            23.719106242324962
          ],
          [
            121.40387851350691,
            23.71923811064831
          ],
          [
            121.4042971389008,
            23.71930820144313
          ],
          [
            121.4043809068159,
            23.71918864527015
          ],
          [
            121.40477677826001,
            23.719303326278936
          ],
          [
            121.40528759463446,
            23.719751930649412
          ],
          [
            121.4056906819704,
            23.720099610361704
          ],
          [
            121.40572549891134,
            23.72012215212505
          ],
          [
            121.40736264448957,
            23.720593878306076
          ],
          [
            121.40756132848186,
            23.72065408546681
          ],
          [
            121.40946054656176,
            23.72125098951432
          ],
          [
            121.40982550257519,
            23.721351082196183
          ],
          [
            121.41046308781554,
            23.721518346414687
          ],
          [
            121.4106767164368,
            23.721571623794873
          ],
          [
            121.41136992833295,
            23.72168427725541
          ],
          [
            121.41191723911861,
            23.72172534820417
          ],
          [
            121.41252132691217,
            23.72174336547491
          ],
          [
            121.41314996834777,
            23.721659905357914
          ],
          [
            121.41349797498236,
            23.72159682106083
          ],
          [
            121.41388133760202,
            23.721478029002498
          ],
          [
            121.41441017970283,
            23.721296691898942
          ],
          [
            121.41478266345926,
            23.721109229375326
          ],
          [
            121.41533951250335,
            23.720796962193877
          ],
          [
            121.41568684105616,
            23.72056559922567
          ],
          [
            121.41593413763543,
            23.720386975413604
          ],
          [
            121.41651263422497,
            23.719956225263484
          ],
          [
            121.41737673673602,
            23.719239967758647
          ],
          [
            121.41781902079407,
            23.718882856574332
          ],
          [
            121.41807978841665,
            23.718651852969977
          ],
          [
            121.4175099606532,
            23.718230478319388
          ],
          [
            121.41742384447056,
            23.718322830354015
          ],
          [
            121.41729245707614,
            23.71848020755829
          ],
          [
            121.41719949194153,
            23.718564202853887
          ],
          [
            121.41714719228953,
            23.718564343883617
          ],
          [
            121.41614310856245,
            23.718162977733346
          ],
          [
            121.41529627563206,
            23.717870050989678
          ],
          [
            121.41463379185916,
            23.717626873437656
          ],
          [
            121.41428320665801,
            23.717500100386438
          ],
          [
            121.41420814083807,
            23.71749192719039
          ],
          [
            121.41385766210247,
            23.717398651442007
          ],
          [
            121.41351078349872,
            23.717437683605816
          ],
          [
            121.41324909956685,
            23.71752413744064
          ],
          [
            121.41293518087576,
            23.71766030810368
          ],
          [
            121.41259077913469,
            23.717822017908322
          ],
          [
            121.41253075003736,
            23.717706944837
          ],
          [
            121.41290716741544,
            23.717545149722728
          ],
          [
            121.41295936803697,
            23.717484713339235
          ],
          [
            121.41324136071914,
            23.71737726937104
          ],
          [
            121.4134708470862,
            23.717320128193272
          ],
          [
            121.41373895650632,
            23.71725241520533
          ],
          [
            121.41373628592613,
            23.717126804085343
          ],
          [
            121.41378163198145,
            23.71708481005866
          ],
          [
            121.41392519131028,
            23.71718073373413
          ],
          [
            121.41404127342018,
            23.717216014777257
          ],
          [
            121.41513627942733,
            23.71761086973371
          ],
          [
            121.4156531273538,
            23.717820938817656
          ],
          [
            121.41662299834147,
            23.71819099670016
          ],
          [
            121.4171466395555,
            23.718390574247444
          ],
          [
            121.41736857099099,
            23.718103148523994
          ],
          [
            121.4173772198732,
            23.717962851705025
          ],
          [
            121.41794926031297,
            23.71836537853109
          ],
          [
            121.41798329583634,
            23.71834225621406
          ],
          [
            121.41827544670333,
            23.71855741294602
          ],
          [
            121.41849248604971,
            23.718540169719663
          ],
          [
            121.42186513184852,
            23.718249431580407
          ],
          [
            121.42216375493697,
            23.718197436409856
          ],
          [
            121.42290592965198,
            23.718071099647855
          ],
          [
            121.42347756088726,
            23.717945227159774
          ],
          [
            121.4238247734375,
            23.717847159689427
          ],
          [
            121.42414641521776,
            23.717738938078536
          ],
          [
            121.4243460558863,
            23.71767194256591
          ],
          [
            121.42492810568845,
            23.717404552782025
          ],
          [
            121.4256485761591,
            23.71702432819207
          ],
          [
            121.4256478130862,
            23.716789205785123
          ],
          [
            121.42650279332256,
            23.716802185509387
          ],
          [
            121.42681894591433,
            23.716714419554176
          ],
          [
            121.42722915633428,
            23.716529277502797
          ],
          [
            121.42762274535292,
            23.716354401978958
          ],
          [
            121.42864289736997,
            23.715947778103374
          ],
          [
            121.42989642081253,
            23.71560694823869
          ],
          [
            121.43058989836872,
            23.71546701201445
          ],
          [
            121.43119481946039,
            23.715409101855915
          ],
          [
            121.43215281755745,
            23.715309951698142
          ],
          [
            121.43372243483483,
            23.715185761214897
          ],
          [
            121.43552595769778,
            23.714973044504724
          ],
          [
            121.43707792575684,
            23.71476101765379
          ],
          [
            121.43858659050744,
            23.714570501218354
          ],
          [
            121.43941899069418,
            23.714476134592623
          ],
          [
            121.44011265719696,
            23.714397492478174
          ],
          [
            121.44071774025048,
            23.71439065842039
          ],
          [
            121.44142835209145,
            23.714398855249794
          ],
          [
            121.44270652888555,
            23.71448944483752
          ],
          [
            121.44489303699856,
            23.714674850878847
          ],
          [
            121.44724776678372,
            23.714842168821384
          ],
          [
            121.44823622981596,
            23.714931313142948
          ],
          [
            121.44899151806382,
            23.715016017138556
          ],
          [
            121.44908965809859,
            23.715026324178407
          ],
          [
            121.45473966446173,
            23.715663435004643
          ],
          [
            121.45511160853044,
            23.715703507846186
          ],
          [
            121.45629461371823,
            23.715858476024053
          ],
          [
            121.45789168485241,
            23.71605054588089
          ],
          [
            121.46112103586442,
            23.716477978368797
          ],
          [
            121.46265952885902,
            23.716682952231764
          ],
          [
            121.46546415921982,
            23.716996557200503
          ],
          [
            121.4664527760274,
            23.71712136359384
          ],
          [
            121.4684211552118,
            23.717377323913343
          ],
          [
            121.46938802714044,
            23.71750524469655
          ],
          [
            121.46999225180059,
            23.717565564453487
          ],
          [
            121.47075293695615,
            23.71766139100642
          ],
          [
            121.47135011632356,
            23.71773808327911
          ],
          [
            121.4721216973608,
            23.71789929456931
          ],
          [
            121.47294663370008,
            23.71807669527976
          ],
          [
            121.47446155935202,
            23.718448253723846
          ],
          [
            121.47449688790002,
            23.718392534173862
          ],
          [
            121.47505567669131,
            23.718107239857115
          ],
          [
            121.47578708563033,
            23.7177216391279
          ],
          [
            121.47657944513539,
            23.71730517877085
          ],
          [
            121.47733305134905,
            23.716919502429974
          ],
          [
            121.47815171635543,
            23.71649728500175
          ],
          [
            121.47841037185857,
            23.71634155748336
          ],
          [
            121.47847175961599,
            23.716339274564408
          ],
          [
            121.4788265435779,
            23.716354925234203
          ],
          [
            121.4793185499381,
            23.716386891983536
          ],
          [
            121.4795852430054,
            23.716447401529283
          ],
          [
            121.48013539755188,
            23.716599036550097
          ],
          [
            121.48046308251081,
            23.71663891024375
          ],
          [
            121.48081846853955,
            23.716663362927637
          ],
          [
            121.48189573095844,
            23.716736682385847
          ],
          [
            121.48202315182986,
            23.716664726035606
          ],
          [
            121.48213399229813,
            23.716613267184986
          ],
          [
            121.48229472080487,
            23.716541206813428
          ],
          [
            121.48246086932028,
            23.716433350121108
          ],
          [
            121.48258815793301,
            23.716325614469216
          ],
          [
            121.48264331459255,
            23.716228326264805
          ],
          [
            121.48263185462585,
            23.716131245863203
          ],
          [
            121.48258682264402,
            23.71596271076577
          ],
          [
            121.48242372520421,
            23.71539074496591
          ],
          [
            121.48220460946652,
            23.714680947285892
          ],
          [
            121.48200749438705,
            23.713914855457244
          ],
          [
            121.48185081456312,
            23.713335303764673
          ],
          [
            121.481627728004,
            23.712570518373905
          ],
          [
            121.48140549263665,
            23.711734171346066
          ],
          [
            121.48113637043575,
            23.711009192091733
          ],
          [
            121.48089508295128,
            23.71030457261985
          ],
          [
            121.48082653986069,
            23.709778313384607
          ],
          [
            121.48059615246513,
            23.709017433262368
          ],
          [
            121.48012411572978,
            23.707449704768134
          ],
          [
            121.47959983770369,
            23.705634233774678
          ],
          [
            121.47919628281313,
            23.7043815976691
          ],
          [
            121.47875850796375,
            23.703256850922063
          ],
          [
            121.47870804848154,
            23.703125512725045
          ],
          [
            121.47406847332226,
            23.69306421637267
          ],
          [
            121.47375851997782,
            23.692498062973893
          ],
          [
            121.47323454144397,
            23.691493678580674
          ],
          [
            121.47250133947952,
            23.69018612273102
          ],
          [
            121.47218855557544,
            23.68964047645093
          ],
          [
            121.47190953331211,
            23.689222193010195
          ],
          [
            121.47161979898779,
            23.688911279903103
          ],
          [
            121.47103472689429,
            23.688274136526246
          ],
          [
            121.47048364055125,
            23.687826008170497
          ],
          [
            121.46986994116332,
            23.687375206247626
          ],
          [
            121.46915781838186,
            23.686903026842504
          ],
          [
            121.46825020722235,
            23.68639545176228
          ],
          [
            121.46736335460386,
            23.68598001850756
          ],
          [
            121.46616836489648,
            23.685503148506832
          ],
          [
            121.4651404295509,
            23.685179108812726
          ],
          [
            121.46453492373527,
            23.685027583999283
          ],
          [
            121.46395724095579,
            23.6848964195018
          ],
          [
            121.4626466573414,
            23.68468566153339
          ],
          [
            121.46143082380605,
            23.684587060307035
          ],
          [
            121.46023378932024,
            23.684594097696728
          ],
          [
            121.45924649617213,
            23.684649369422896
          ],
          [
            121.45828429620967,
            23.684769986574207
          ],
          [
            121.45770567258168,
            23.684876379611747
          ],
          [
            121.45689985168596,
            23.685022695979637
          ],
          [
            121.45615079332362,
            23.685149213928387
          ],
          [
            121.45530046879652,
            23.68533102352866
          ],
          [
            121.45356670434394,
            23.685686754320127
          ],
          [
            121.45343893020585,
            23.685716569996437
          ],
          [
            121.45213978358741,
            23.685988615261177
          ],
          [
            121.45068390180002,
            23.68629957625971
          ],
          [
            121.44952407394545,
            23.686540773846602
          ],
          [
            121.44755693036383,
            23.686969760249944
          ],
          [
            121.44612722662251,
            23.68733072535577
          ],
          [
            121.44516247274237,
            23.687624852241914
          ],
          [
            121.44370413936525,
            23.68803795112812
          ],
          [
            121.44227711779561,
            23.688588341057937
          ],
          [
            121.44096450037821,
            23.689095864736366
          ],
          [
            121.43927220136943,
            23.689728764928674
          ],
          [
            121.43816885913111,
            23.690150618159063
          ],
          [
            121.4371742420258,
            23.690556004222643
          ],
          [
            121.43580511410232,
            23.691106785540192
          ],
          [
            121.43479055839083,
            23.691462324900176
          ],
          [
            121.43370205544791,
            23.691815202371085
          ],
          [
            121.43143039708862,
            23.692504229550845
          ],
          [
            121.43014946146089,
            23.692880926819715
          ],
          [
            121.42895164275104,
            23.69321649201685
          ],
          [
            121.42754329771529,
            23.693675303376946
          ],
          [
            121.4256689966495,
            23.694227388981126
          ],
          [
            121.42452664242491,
            23.694557656809543
          ],
          [
            121.42339554078444,
            23.69493644306447
          ],
          [
            121.41660254897577,
            23.696991771700816
          ],
          [
            121.41564340044982,
            23.697347037331106
          ],
          [
            121.41306099987654,
            23.69836964144324
          ],
          [
            121.41162813923673,
            23.6989366467815
          ],
          [
            121.41131166439607,
            23.698426894064106
          ],
          [
            121.41076499055647,
            23.69756451497592
          ],
          [
            121.40983347707665,
            23.696110229012753
          ],
          [
            121.40968834652537,
            23.695849930695495
          ],
          [
            121.40935331781088,
            23.6952118887844
          ],
          [
            121.4093667596908,
            23.6946097277387
          ],
          [
            121.40939347473208,
            23.69406334823002
          ],
          [
            121.40946198143232,
            23.693248610480058
          ],
          [
            121.40951349103453,
            23.692679265765772
          ],
          [
            121.40956168960572,
            23.69173163607109
          ],
          [
            121.40913884446078,
            23.691739035076445
          ],
          [
            121.40916020919293,
            23.691299313986157
          ],
          [
            121.40918396508171,
            23.690897272352057
          ],
          [
            121.40877474415579,
            23.69089835321277
          ],
          [
            121.40876462165916,
            23.691298264800903
          ],
          [
            121.40874088668465,
            23.691604447940733
          ],
          [
            121.408737628768,
            23.691754528823008
          ],
          [
            121.40872199627769,
            23.69175557600629
          ],
          [
            121.40826375175098,
            23.691756784944776
          ],
          [
            121.40822661891778,
            23.692381703184367
          ],
          [
            121.40818604513358,
            23.69304261592643
          ],
          [
            121.40812316548738,
            23.694115902544667
          ],
          [
            121.40807235816455,
            23.694593385865524
          ],
          [
            121.40806689188864,
            23.695028877654373
          ],
          [
            121.40802876839312,
            23.695015631215437
          ],
          [
            121.4067724475152,
            23.694770579322288
          ],
          [
            121.40645621435193,
            23.694702319383747
          ],
          [
            121.40640845802508,
            23.694698257641022
          ],
          [
            121.40630153143621,
            23.69467550782724
          ],
          [
            121.40574418325332,
            23.69456810009657
          ],
          [
            121.40573942047416,
            23.694498237417438
          ],
          [
            121.4057101326481,
            23.69421698137471
          ],
          [
            121.40568392145576,
            23.693781965338136
          ],
          [
            121.40565398710415,
            23.693291347299127
          ],
          [
            121.40564554801723,
            23.692859556127807
          ],
          [
            121.40565161208875,
            23.692522594752035
          ],
          [
            121.40513288426119,
            23.69249451128995
          ],
          [
            121.4039924316839,
            23.692445149996214
          ],
          [
            121.40286616877938,
            23.692389201292116
          ],
          [
            121.40229753160916,
            23.69234946152069
          ],
          [
            121.40159043539873,
            23.69233664085758
          ],
          [
            121.40034016961535,
            23.692294342257995
          ],
          [
            121.39938541008219,
            23.692267427700816
          ],
          [
            121.39690719776922,
            23.69215980090158
          ],
          [
            121.39626611709497,
            23.69216352248249
          ],
          [
            121.39587473603225,
            23.692171223739813
          ],
          [
            121.39560475758293,
            23.692244358886917
          ],
          [
            121.39527841794828,
            23.69240221500899
          ],
          [
            121.39504806908398,
            23.69258599661137
          ],
          [
            121.39493485712295,
            23.69274003749852
          ],
          [
            121.39474388780137,
            23.693025129084372
          ],
          [
            121.39462011585049,
            23.693211909792577
          ],
          [
            121.39382124820183,
            23.69287582052922
          ],
          [
            121.39329759312253,
            23.69262591383255
          ],
          [
            121.39264601818437,
            23.692363114676088
          ],
          [
            121.39150438005117,
            23.691914563638587
          ],
          [
            121.39067589627604,
            23.69164840807426
          ],
          [
            121.38995665017997,
            23.691466111708536
          ],
          [
            121.38911479810258,
            23.69124211622235
          ],
          [
            121.38797749242133,
            23.69105026144127
          ],
          [
            121.38696563745623,
            23.6909962651248
          ],
          [
            121.38600896563864,
            23.690717973369757
          ],
          [
            121.38545234426083,
            23.690508032817963
          ],
          [
            121.38502692086766,
            23.69041068987094
          ],
          [
            121.38471745580244,
            23.69031724571158
          ],
          [
            121.38438751825139,
            23.69021966372746
          ],
          [
            121.38414423576582,
            23.690211892315485
          ],
          [
            121.38370206111776,
            23.690216652931827
          ],
          [
            121.38304513270313,
            23.69030006231158
          ],
          [
            121.3828462729158,
            23.690323453690173
          ],
          [
            121.38283286095906,
            23.69035332041812
          ],
          [
            121.38262216265478,
            23.69060507922854
          ],
          [
            121.38235902742286,
            23.690806719098784
          ],
          [
            121.38201851480444,
            23.690981331812413
          ],
          [
            121.38070164828817,
            23.69080033459716
          ],
          [
            121.38066303605811,
            23.69081299088674
          ],
          [
            121.3803329490189,
            23.690908670949728
          ],
          [
            121.37995460937677,
            23.690951920676603
          ],
          [
            121.37985232776812,
            23.69096361238603
          ],
          [
            121.37983579152558,
            23.6909655031582
          ],
          [
            121.3795613676396,
            23.690655400888787
          ],
          [
            121.37926974119146,
            23.690538347832973
          ],
          [
            121.37923419020842,
            23.69052862131291
          ],
          [
            121.37895007516259,
            23.690552215572364
          ],
          [
            121.37865717096706,
            23.690614407040364
          ],
          [
            121.37769823312372,
            23.68772689244798
          ],
          [
            121.37812112004795,
            23.687594799080184
          ],
          [
            121.37843173107454,
            23.687469410907916
          ],
          [
            121.37901191287187,
            23.686966824027014
          ],
          [
            121.37975013379177,
            23.686291156019234
          ],
          [
            121.3799783336245,
            23.685859697324346
          ],
          [
            121.38017529139218,
            23.68551532353283
          ],
          [
            121.38039957699463,
            23.68528689376897
          ],
          [
            121.38051593641846,
            23.685075301304284
          ],
          [
            121.3808314483775,
            23.684598828085363
          ],
          [
            121.38114717444381,
            23.684390888558653
          ],
          [
            121.38165917997543,
            23.683994723303258
          ],
          [
            121.38233960668235,
            23.68350103318807
          ],
          [
            121.38264098580639,
            23.68319601855402
          ],
          [
            121.38282295884581,
            23.682923666783527
          ],
          [
            121.38310373843616,
            23.682787022382296
          ],
          [
            121.38351813286859,
            23.68266946709688
          ],
          [
            121.38434750760426,
            23.68263504203571
          ],
          [
            121.38487463559085,
            23.682607838267856
          ],
          [
            121.38560563575658,
            23.682586598744308
          ],
          [
            121.38642125400081,
            23.68265577778772
          ],
          [
            121.38709638165435,
            23.682757673776006
          ],
          [
            121.38758885909581,
            23.6828988666193
          ],
          [
            121.38838306678586,
            23.682858033571968
          ],
          [
            121.38864983976858,
            23.682740835610844
          ],
          [
            121.38948599265582,
            23.68262220551641
          ],
          [
            121.3910888647183,
            23.682528342475443
          ],
          [
            121.39164886755064,
            23.682476350583382
          ],
          [
            121.39241722327738,
            23.68231256004517
          ],
          [
            121.39295507569067,
            23.682199926626854
          ],
          [
            121.39363574262674,
            23.682097044549483
          ],
          [
            121.39450324667362,
            23.682034145373123
          ],
          [
            121.39556860192543,
            23.682021313011262
          ],
          [
            121.39593621917533,
            23.682010910473426
          ],
          [
            121.39644852861981,
            23.681945959761876
          ],
          [
            121.39678506100947,
            23.681833728026334
          ],
          [
            121.39694576036214,
            23.681655653083364
          ],
          [
            121.39720404869047,
            23.681376564167028
          ],
          [
            121.3974196120138,
            23.681251381872446
          ],
          [
            121.3977912782316,
            23.681332630613504
          ],
          [
            121.39787765472263,
            23.681332408755583
          ],
          [
            121.3980672967522,
            23.681204640097036
          ],
          [
            121.39823947788501,
            23.68101592790942
          ],
          [
            121.39862897174037,
            23.680745614830183
          ],
          [
            121.39880428477723,
            23.680699587423703
          ],
          [
            121.39920948596286,
            23.680802125389192
          ],
          [
            121.3997674556325,
            23.6808421186553
          ],
          [
            121.4000328941509,
            23.680845576220516
          ],
          [
            121.40034315575551,
            23.680795055620035
          ],
          [
            121.40065843446953,
            23.68091439546779
          ],
          [
            121.4007619428156,
            23.680926557210075
          ],
          [
            121.40081125239628,
            23.68086842398219
          ],
          [
            121.40086536366631,
            23.680909716290582
          ],
          [
            121.4007714460204,
            23.681092262885247
          ],
          [
            121.40084923934182,
            23.68152296006587
          ],
          [
            121.40096275848796,
            23.681866556252256
          ],
          [
            121.4011297449476,
            23.68204013986067
          ],
          [
            121.401206312658,
            23.68206894435791
          ],
          [
            121.40129628790082,
            23.682068711266197
          ],
          [
            121.40148541435488,
            23.682126226766826
          ],
          [
            121.40172894446708,
            23.68232032834852
          ],
          [
            121.40193183379378,
            23.682464816030276
          ],
          [
            121.40221101274071,
            23.682546955950542
          ],
          [
            121.40260289108673,
            23.682703381361208
          ],
          [
            121.4025541402738,
            23.682943817183098
          ],
          [
            121.40237029838869,
            23.68314317077522
          ],
          [
            121.40208294459649,
            23.683330363395207
          ],
          [
            121.40212813557785,
            23.683396538327056
          ],
          [
            121.40223623420653,
            23.683437689945197
          ],
          [
            121.40249719126783,
            23.68344529864023
          ],
          [
            121.40262334917475,
            23.683507119213253
          ],
          [
            121.40278145643097,
            23.683718014390706
          ],
          [
            121.4028225814538,
            23.683925069927582
          ],
          [
            121.40275582219678,
            23.684161408840215
          ],
          [
            121.40265341606519,
            23.684509707832817
          ],
          [
            121.40254221367007,
            23.684924321854748
          ],
          [
            121.40250664196597,
            23.685061141663645
          ],
          [
            121.40254802096601,
            23.685351062103067
          ],
          [
            121.40256992915828,
            23.68561850379549
          ],
          [
            121.40254935662156,
            23.685786877155284
          ],
          [
            121.40276794685782,
            23.686006418175086
          ],
          [
            121.40339211384068,
            23.68626038101864
          ],
          [
            121.40418507201663,
            23.68663120599769
          ],
          [
            121.4046444997819,
            23.68680402206077
          ],
          [
            121.40486039775563,
            23.686786885408644
          ],
          [
            121.40518405287312,
            23.686699030572978
          ],
          [
            121.40564749539826,
            23.686714390606458
          ],
          [
            121.40608780192444,
            23.686522646656446
          ],
          [
            121.40646957029192,
            23.686314482743406
          ],
          [
            121.4069916768539,
            23.686387690350603
          ],
          [
            121.40765335361256,
            23.686493674508
          ],
          [
            121.40791889361866,
            23.68652612093987
          ],
          [
            121.40881870549126,
            23.686532034816487
          ],
          [
            121.40913810390494,
            23.686522904683827
          ],
          [
            121.40910839229349,
            23.687094751172687
          ],
          [
            121.40945476037894,
            23.687077263389213
          ],
          [
            121.40950693918687,
            23.686497069901442
          ],
          [
            121.41005560128279,
            23.686429326818057
          ],
          [
            121.41102255985327,
            23.68632732562818
          ],
          [
            121.41141827035584,
            23.68626412556334
          ],
          [
            121.41271330919731,
            23.68605351746252
          ],
          [
            121.41433622717847,
            23.68567214886466
          ],
          [
            121.41509145319239,
            23.685483680383225
          ],
          [
            121.41725266534505,
            23.68496462788115
          ],
          [
            121.41946523862359,
            23.684421323846944
          ],
          [
            121.42076446428217,
            23.68403584427299
          ],
          [
            121.4217334878745,
            23.683709517126644
          ],
          [
            121.42266919081962,
            23.683406338763234
          ],
          [
            121.4231406960905,
            23.6831622829157
          ],
          [
            121.42329364927532,
            23.682908981418503
          ],
          [
            121.4233135305659,
            23.682261544985902
          ],
          [
            121.42335583327488,
            23.68175566220667
          ],
          [
            121.42231225713391,
            23.681707934389184
          ],
          [
            121.42123499298067,
            23.681703989893062
          ],
          [
            121.42034210453339,
            23.681654624395122
          ],
          [
            121.41925237582326,
            23.68159931412413
          ],
          [
            121.41857040881705,
            23.681562315140237
          ],
          [
            121.41774202779973,
            23.681445360149738
          ],
          [
            121.41746554856205,
            23.681422346400552
          ],
          [
            121.41742466448939,
            23.681313843588118
          ],
          [
            121.41763254810834,
            23.681206367807032
          ],
          [
            121.4176985826115,
            23.681111153932374
          ],
          [
            121.41786768912537,
            23.68097832562647
          ],
          [
            121.41848515005258,
            23.681027571254482
          ],
          [
            121.41895514741252,
            23.681061938562877
          ],
          [
            121.41972554133439,
            23.681107371203975
          ],
          [
            121.4201346934359,
            23.68113002110958
          ],
          [
            121.42145237080379,
            23.681211719549882
          ],
          [
            121.42311087269613,
            23.68123371388717
          ],
          [
            121.42369539131118,
            23.681245374493894
          ],
          [
            121.42497523051142,
            23.681197618711458
          ],
          [
            121.42576175825398,
            23.680963436653034
          ],
          [
            121.4270155848716,
            23.680553947432344
          ],
          [
            121.42747407649759,
            23.68043667175146
          ],
          [
            121.42933388267531,
            23.679875556236073
          ],
          [
            121.43084369721365,
            23.679424670805243
          ],
          [
            121.43290833487579,
            23.6788297971714
          ],
          [
            121.43438304323216,
            23.67839839681896
          ],
          [
            121.43768319443303,
            23.677327401652242
          ],
          [
            121.43863769836847,
            23.676890955647462
          ],
          [
            121.44041629806583,
            23.67617500409129
          ],
          [
            121.44296086593458,
            23.675146099689933
          ],
          [
            121.4460099075045,
            23.673913396588123
          ],
          [
            121.4477099042349,
            23.673230765443023
          ],
          [
            121.44931148897852,
            23.672679900899972
          ],
          [
            121.4496833368674,
            23.67222363216306
          ],
          [
            121.44957240503197,
            23.671900263830697
          ],
          [
            121.44960427910544,
            23.671586596216663
          ],
          [
            121.44950350096443,
            23.67102042925366
          ],
          [
            121.44933804250552,
            23.669925539715525
          ],
          [
            121.44924616451745,
            23.66936646840929
          ],
          [
            121.44887137495984,
            23.668949087652187
          ],
          [
            121.44828617103849,
            23.668826484208505
          ],
          [
            121.44772336077824,
            23.668674811091275
          ],
          [
            121.44698468206823,
            23.66839520375218
          ]
        ]
      },
      "properties": {
        "OBJECTID": 1,
        "Shape_Length": 38039.37778072669
      }
    },
    {
      "type": "Feature",
      "id": 4,
      "geometry": {
        "type": "LineString",
        "coordinates": [
          [
            121.4264540038276,
            23.72244146272614
          ],
          [
            121.4267245934633,
            23.721945319140872
          ],
          [
            121.42685675156798,
            23.72170599796019
          ],
          [
            121.42751348240014,
            23.721208786983574
          ],
          [
            121.42787559852904,
            23.72096655646272
          ],
          [
            121.42843520902412,
            23.72153369927508
          ],
          [
            121.42868368083194,
            23.72139720372099
          ],
          [
            121.43052976403132,
            23.720679090081923
          ],
          [
            121.43093029022634,
            23.72052519270038
          ],
          [
            121.43107785529786,
            23.720499657236175
          ],
          [
            121.43165458561363,
            23.72044493344133
          ],
          [
            121.4342131463824,
            23.720196337906888
          ],
          [
            121.43829228175714,
            23.71984199840036
          ],
          [
            121.43962925613364,
            23.719722315397675
          ],
          [
            121.44111825600383,
            23.719582873770264
          ],
          [
            121.44202033480546,
            23.719585128006024
          ],
          [
            121.44306942375856,
            23.719635242448597
          ],
          [
            121.44691763459869,
            23.7199898396798
          ],
          [
            121.44956515968083,
            23.720266975599
          ],
          [
            121.4525184458824,
            23.720603563566947
          ],
          [
            121.4589408788467,
            23.721362356503164
          ],
          [
            121.46244785928238,
            23.72176669251037
          ],
          [
            121.4657717020177,
            23.72213261385189
          ],
          [
            121.46703990489617,
            23.722256070854044
          ],
          [
            121.46706544850268,
            23.722174444706006
          ],
          [
            121.46715402247614,
            23.722174177237626
          ],
          [
            121.46715799149513,
            23.722252316397277
          ],
          [
            121.46755663518155,
            23.72226810224669
          ]
        ]
      },
      "properties": {
        "OBJECTID": 4,
        "Shape_Length": 4358.856857373677
      }
    },
    {
      "type": "Feature",
      "id": 5,
      "geometry": {
        "type": "LineString",
        "coordinates": [
          [
            121.459097420567,
            23.668322091078156
          ],
          [
            121.46011640283903,
            23.668568971121
          ],
          [
            121.4601783783643,
            23.668623221226664
          ],
          [
            121.46064501622622,
            23.66839914979954
          ],
          [
            121.46080349084019,
            23.668393729389717
          ],
          [
            121.46107333569051,
            23.6687393257002
          ],
          [
            121.46115221962171,
            23.6690186841284
          ],
          [
            121.4610691522814,
            23.669078314681126
          ],
          [
            121.46127454506923,
            23.66942905066838
          ],
          [
            121.46154350838746,
            23.669302318824663
          ],
          [
            121.46156919718278,
            23.669410682564582
          ],
          [
            121.4616213956198,
            23.669548167777887
          ],
          [
            121.46165254197041,
            23.669605082600196
          ],
          [
            121.46205434489556,
            23.66946136635426
          ],
          [
            121.46213562349341,
            23.669595725247863
          ],
          [
            121.46249369217985,
            23.670215403503533
          ],
          [
            121.46273591005975,
            23.6706469856542
          ],
          [
            121.46263009959128,
            23.670713873550735
          ],
          [
            121.46283859718565,
            23.670865270540567
          ],
          [
            121.46353593178053,
            23.67129226031763
          ],
          [
            121.46384087942889,
            23.671471870682304
          ],
          [
            121.46482930477231,
            23.672088884554565
          ],
          [
            121.46524730218216,
            23.672364034468686
          ],
          [
            121.46537423644722,
            23.67255417302927
          ],
          [
            121.4654295520765,
            23.67263106953445
          ],
          [
            121.46563040686736,
            23.672797687207662
          ],
          [
            121.46574071808149,
            23.672875391710196
          ],
          [
            121.46581808293884,
            23.6729322931094
          ],
          [
            121.46587680237644,
            23.673006543425547
          ],
          [
            121.46619054517373,
            23.673239962513698
          ],
          [
            121.46638014493176,
            23.67337399214538
          ],
          [
            121.46756439451441,
            23.6742696734254
          ],
          [
            121.46831857550927,
            23.674824106857145
          ],
          [
            121.46934755892059,
            23.675595440395476
          ],
          [
            121.46974623124343,
            23.67589609300491
          ],
          [
            121.47005628019573,
            23.67620443684597
          ],
          [
            121.47016952693237,
            23.67632038371953
          ],
          [
            121.47032887839784,
            23.676557430274947
          ],
          [
            121.47048288433994,
            23.676801915340693
          ],
          [
            121.47054776700097,
            23.67691553554917
          ],
          [
            121.47094711214623,
            23.677401753241273
          ],
          [
            121.47123476070222,
            23.677455312503522
          ],
          [
            121.4714444401458,
            23.677491788579264
          ],
          [
            121.47218429937261,
            23.677788921805593
          ],
          [
            121.47287956821572,
            23.678385575100545
          ],
          [
            121.47325694426014,
            23.678735769073498
          ],
          [
            121.47426870164774,
            23.67969578432217
          ],
          [
            121.47466915867274,
            23.680158483233146
          ],
          [
            121.47475339219714,
            23.68023554585266
          ],
          [
            121.47485320556139,
            23.680349056167532
          ],
          [
            121.47511002891554,
            23.680791162952534
          ],
          [
            121.47483427085777,
            23.681056756037847
          ],
          [
            121.47510680355046,
            23.681384997450646
          ],
          [
            121.47533079974455,
            23.68166390343928
          ],
          [
            121.47553564151939,
            23.68184637068483
          ],
          [
            121.4758538760707,
            23.682181893730316
          ],
          [
            121.47610460622109,
            23.68242360146428
          ],
          [
            121.4766494785553,
            23.683023172425813
          ],
          [
            121.47767263487916,
            23.684193132706078
          ],
          [
            121.4789996074214,
            23.68578710274387
          ],
          [
            121.47975268120719,
            23.686742312226414
          ],
          [
            121.47986886721151,
            23.68692257391872
          ],
          [
            121.4809492725765,
            23.688485432989857
          ],
          [
            121.48113309246071,
            23.68879167128551
          ],
          [
            121.48173122070054,
            23.6897051350409
          ],
          [
            121.48196363049568,
            23.69011807792911
          ],
          [
            121.48222779747375,
            23.690582108318612
          ],
          [
            121.48242473019911,
            23.690799230387334
          ],
          [
            121.48361542678522,
            23.690921702816734
          ],
          [
            121.4839112188817,
            23.69136772998804
          ],
          [
            121.48373286072028,
            23.6914965535754
          ],
          [
            121.48346139680113,
            23.69155757548021
          ],
          [
            121.48339525797854,
            23.691691886869457
          ],
          [
            121.4832909385894,
            23.691818400148687
          ],
          [
            121.48324339659486,
            23.692041232270967
          ],
          [
            121.48314195461857,
            23.69221969618723
          ],
          [
            121.48312869917393,
            23.69299851203322
          ],
          [
            121.48309633717,
            23.693331091777722
          ],
          [
            121.48309827110769,
            23.693491604343215
          ],
          [
            121.48331208671685,
            23.693914035322855
          ],
          [
            121.48381604541323,
            23.694964178628677
          ],
          [
            121.48407842867935,
            23.695531665283717
          ],
          [
            121.48455377047648,
            23.69692380719229
          ],
          [
            121.4846868438251,
            23.69730690149103
          ],
          [
            121.48489288604597,
            23.697833372938796
          ],
          [
            121.48505555416243,
            23.698109980671216
          ]
        ]
      },
      "properties": {
        "OBJECTID": 5,
        "Shape_Length": 4688.14956897187
      }
    }
  ]
}